CUTE-1 (CO-55)          
1 27844U 03031E   26178.29336882  .00000290  00000+0  14447-3 0  9990
2 27844  98.6736 186.7252 0010153 149.6738 210.5030 14.24341593193117
CUBESAT XI-IV (CO-57)   
1 27848U 03031J   26177.93548419  .00000243  00000+0  12580-3 0  9999
2 27848  98.6768 186.0767 0009653 168.4758 191.6643 14.23625736192766
CUBESAT XI-V            
1 28895U 05043F   26178.39064753  .00001463  00000+0  23760-3 0  9999
2 28895  98.2993 334.2271 0014350 168.3542 191.7999 14.72657931103259
CUTE-1.7+APD II (CO-65) 
1 32785U 08021C   26178.52352753  .00004431  00000+0  28008-3 0  9994
2 32785  97.8271 160.1575 0008687   6.7234 353.4109 15.09546349986753
CANX-2                  
1 32790U 08021H   26178.45627884  .00003529  00000+0  24842-3 0  9991
2 32790  97.8634 158.4340 0010688  20.3928 339.7723 15.05689159986356
SEEDS II (CO-66)        
1 32791U 08021J   26178.51465772  .00017245  00000+0  54139-3 0  9997
2 32791  97.7513 176.9075 0000665 208.0671 152.0534 15.33093667988875
SWISSCUBE               
1 35932U 09051B   26178.49963333  .00000936  00000+0  19434-3 0  9992
2 35932  98.4028  86.5674 0006714 169.2513 190.8833 14.62499761890666
BEESAT-1                
1 35933U 09051C   26177.69301354  .00000752  00000+0  16076-3 0  9998
2 35933  98.3957  85.3622 0004848 183.3217 176.7952 14.61734342890572
ITUPSAT1                
1 35935U 09051E   26177.69222981  .00000700  00000+0  15443-3 0  9998
2 35935  98.4042  84.5432 0006750 199.9772 160.1164 14.60453570890126
TISAT 1                 
1 36799U 10035E   26178.11120913  .00021359  00000+0  69124-3 0  9999
2 36799  98.0704 125.5427 0002787 151.6215 208.5177 15.32075173869226
AEROCUBE 4.5A           
1 38767U 12048K   26178.21307348  .01199878  91737-3  12350-2 0  9994
2 38767  64.6176 349.8406 0018533 254.7310 105.1811 16.10182059374261
STRAND-1                
1 39090U 13009E   26178.49925934  .00000279  00000+0  10827-3 0  9991
2 39090  98.3923 358.4799 0008308 192.1718 167.9269 14.37169120698546
BRITE-AUSTRIA           
1 39091U 13009F   26178.44694403  .00000170  00000+0  72334-4 0  9993
2 39091  98.3997 357.6288 0009657 203.2735 156.8015 14.36545897698525
NEE-01 PEGASO           
1 39151U 13018B   26178.38105111  .00002352  00000+0  22774-3 0  9992
2 39151  98.1232 322.8689 0013541 127.6864 232.5585 14.93710269712228
POPACS 2                
1 39269U 13055E   26177.90568677  .00015110  00000+0  25348-3 0  9996
2 39269  80.9907 133.0666 0416428 162.5758 199.0261 14.91465034664661
POPACS 3                
1 39270U 13055F   26178.42578884  .00010751  00000+0  25354-3 0  9990
2 39270  81.0002 218.0853 0551079  38.8255 325.1208 14.56307452640041
ZACUBE-1 (TSHEPISOSAT)  
1 39417U 13066B   26178.47211134  .00002958  00000+0  23092-3 0  9999
2 39417  97.8046 140.8617 0042234 212.7148 147.1459 15.01242239682272
WNISAT-1                
1 39423U 13066H   26178.36775340  .00001156  00000+0  21840-3 0  9996
2 39423  97.7211 326.8020 0162599 199.3623 160.1355 14.58081618668212
TRITON-1                
1 39427U 13066M   26178.56033150  .00001715  00000+0  20995-3 0  9999
2 39427  97.8241  88.1315 0089211 199.6125 160.1650 14.81736718675629
GOMX-1                  
1 39430U 13066Q   26178.53599405  .00002079  00000+0  31566-3 0  9990
2 39430  97.6484  18.3455 0129750  44.7085 316.4494 14.69495147671439
CUBEBUG-2 (LO-74)       
1 39440U 13066AA  26178.44573602  .00004522  00000+0  41800-3 0  9999
2 39440  97.8904 127.4676 0057370 355.1187   4.9465 14.93843373678525
NEE-02 KRYSAOR          
1 39441U 13066AB  26178.37252551  .00002935  00000+0  32355-3 0  9990
2 39441  97.8893 117.5146 0067070  37.4749 323.1115 14.86663245677715
FUNCUBE-1 (AO-73)       
1 39444U 13066AE  26178.46362471  .00006965  00000+0  43065-3 0  9993
2 39444  97.8272 150.1245 0036701 165.9827 194.2429 15.09608220681216
UWE-3                   
1 39446U 13066AG  26178.37512397  .00003939  00000+0  33924-3 0  9990
2 39446  97.8711 134.5185 0046852 286.5601  73.0477 14.97105465679104
BRITE-CA1 (TORONTO)     
1 40020U 14033L   26178.36533176  .00000868  00000+0  13812-3 0  9994
2 40020  97.9749 307.1062 0077363 243.8589 115.4646 14.72691852643710
DUCHIFAT-1              
1 40021U 14033M   26178.12074074  .00123708  00000+0  11664-2 0  9997
2 40021  98.0447 238.6906 0001012 103.7667 256.3704 15.66663856657309
NANOSATC-BR1            
1 40024U 14033Q   26178.07067232  .00017817  00000+0  58279-3 0  9999
2 40024  98.0720 211.3356 0005075 138.8301 221.3322 15.31766053655491
QB50P1                  
1 40025U 14033R   26178.29918808  .00008713  00000+0  42669-3 0  9999
2 40025  98.0962 190.1548 0008862 179.4885 180.6358 15.18409172654566
QB50P2                  
1 40032U 14033Y   26178.46814780  .00007184  00000+0  38517-3 0  9998
2 40032  98.0751 175.9888 0008870 132.8491 227.3486 15.15287233654226
PERSEUS-M2              
1 40037U 14033AD  26178.50067213  .00001452  00000+0  13643-3 0  9994
2 40037  97.9972 129.2517 0010055 267.0753  92.9316 14.95544519652322
